{
    "links": {
        "self": "http://www.neowsapp.com/rest/v1/neo/3719184?api_key=iIulBulltgU6a56xZRHN4H3l9WmuAYTsLGpBGhQ2"
    },
    "id": "3719184",
    "neo_reference_id": "3719184",
    "name": "(2015 JF1)",
    "designation": "2015 JF1",
    "nasa_jpl_url": "http://ssd.jpl.nasa.gov/sbdb.cgi?sstr=3719184",
    "absolute_magnitude_h": 28.1,
    "estimated_diameter": {
        "kilometers": {
            "estimated_diameter_min": 0.0063760979,
            "estimated_diameter_max": 0.0142573883
        },
        "meters": {
            "estimated_diameter_min": 6.3760978988,
            "estimated_diameter_max": 14.2573883328
        },
        "miles": {
            "estimated_diameter_min": 0.0039619223,
            "estimated_diameter_max": 0.0088591276
        },
        "feet": {
            "estimated_diameter_min": 20.9189570301,
            "estimated_diameter_max": 46.7762099378
        }
    },
    "is_potentially_hazardous_asteroid": false,
    "close_approach_data": [
        {
            "close_approach_date": "1936-09-26",
            "close_approach_date_full": "1936-Sep-26 19:11",
            "epoch_date_close_approach": -1049690940000,
            "relative_velocity": {
                "kilometers_per_second": "19.3287023081",
                "kilometers_per_hour": "69583.328309272",
                "miles_per_hour": "43236.3741930585"
            },
            "miss_distance": {
                "astronomical": "0.1975874184",
                "lunar": "76.8615057576",
                "kilometers": "29558656.931438808",
                "miles": "18366897.7328312304"
            },
            "orbiting_body": "Earth"
        },
        {
            "close_approach_date": "2015-05-15",
            "close_approach_date_full": "2015-May-15 11:52",
            "epoch_date_close_approach": 1431690720000,
            "relative_velocity": {
                "kilometers_per_second": "13.7763295665",
                "kilometers_per_hour": "49594.786439427",
                "miles_per_hour": "30816.2716073206"
            },
            "miss_distance": {
                "astronomical": "0.00207702",
                "lunar": "0.80796078",
                "kilometers": "310717.7679474",
                "miles": "193071.06817812"
            },
            "orbiting_body": "Earth"
        },
        {
            "close_approach_date": "2015-05-15",
            "close_approach_date_full": "2015-May-15 18:44",
            "epoch_date_close_approach": 1431715440000,
            "relative_velocity": {
                "kilometers_per_second": "13.5194970115",
                "kilometers_per_hour": "48670.1892413269",
                "miles_per_hour": "30241.7628649789"
            },
            "miss_distance": {
                "astronomical": "0.0019583414",
                "lunar": "0.7617948046",
                "kilometers": "292963.702172818",
                "miles": "182039.2032601684"
            },
            "orbiting_body": "Moon"
        },
        {
            "close_approach_date": "2020-09-25",
            "close_approach_date_full": "2020-Sep-25 12:10",
            "epoch_date_close_approach": 1601035800000,
            "relative_velocity": {
                "kilometers_per_second": "17.3705816842",
                "kilometers_per_hour": "62534.09406308",
                "miles_per_hour": "38856.2541693622"
            },
            "miss_distance": {
                "astronomical": "0.1321083311",
                "lunar": "51.3901407979",
                "kilometers": "19763124.941814757",
                "miles": "12280236.3967153666"
            },
            "orbiting_body": "Earth"
        }
    ],
    "orbital_data": {
        "orbit_id": "3",
        "orbit_determination_date": "2017-04-06 08:33:49",
        "first_observation_date": "2015-05-12",
        "last_observation_date": "2015-05-14",
        "data_arc_in_days": 2,
        "observations_used": 32,
        "orbit_uncertainty": "7",
        "minimum_orbit_intersection": ".00142277",
        "jupiter_tisserand_invariant": "3.773",
        "epoch_osculation": "2459000.5",
        "eccentricity": ".55617695672843",
        "semi_major_axis": "1.873967415390155",
        "inclination": "2.644671150434827",
        "ascending_node_longitude": "232.3935192441218",
        "orbital_period": "937.0040747423865",
        "perihelion_distance": ".8317099212902168",
        "perihelion_argument": "61.54870423456818",
        "aphelion_distance": "2.916224909490093",
        "perihelion_time": "2459074.044515477061",
        "mean_anomaly": "331.7439589800916",
        "mean_motion": ".3842032384960289",
        "equinox": "J2000",
        "orbit_class": {
            "orbit_class_type": "APO",
            "orbit_class_description": "Near-Earth asteroid orbits which cross the Earth’s orbit similar to that of 1862 Apollo",
            "orbit_class_range": "a (semi-major axis) > 1.0 AU; q (perihelion) < 1.017 AU"
        }
    },
    "is_sentry_object": false
}